     3.02           N: GNSS NAV DATA    R: GLONASS          RINEX VERSION / TYPE
sbf2rin-9.3.3                           20160106 000420 LCL PGM / RUN BY / DATE 
    17                                                      LEAP SECONDS        
                                                            END OF HEADER       
R10 2016 01 05 21 15 00 4.556961357594E-06 9.094947017729E-13 7.560000000000E+04
     5.984143066406E+03 3.790245056152E-01 1.862645149231E-09 0.000000000000E+00
    -1.534775683594E+04 2.649095535278E+00 9.313225746155E-10-7.000000000000E+00
     1.948903710938E+04 1.961697578430E+00-9.313225746155E-10 0.000000000000E+00
R11 2016 01 05 21 15 00 2.138968557119E-05 0.000000000000E+00 7.560000000000E+04
    -2.796268554688E+03-6.067752838135E-02-0.000000000000E+00 0.000000000000E+00
    -2.483146386719E+04 6.987543106079E-01 9.313225746155E-10 0.000000000000E+00
     4.898509277344E+03 3.517635345459E+00-9.313225746155E-10 0.000000000000E+00
R09 2016 01 05 21 15 00 2.350099384785E-05 0.000000000000E+00 7.560000000000E+04
     1.136943994141E+04 6.519613265991E-01 3.725290298462E-09 0.000000000000E+00
     2.748765625000E+03 3.038287162781E+00 0.000000000000E+00-2.000000000000E+00
     2.266360498047E+04-6.852140426636E-01-0.000000000000E+00 0.000000000000E+00
R06 2016 01 05 21 15 00 8.138548582792E-05 0.000000000000E+00 7.560000000000E+04
     1.929662060547E+04-1.566841125488E+00 9.313225746155E-10 0.000000000000E+00
    -7.778221191406E+03 1.274703025818E+00 0.000000000000E+00-4.000000000000E+00
    -1.475714697266E+04-2.726830482483E+00 2.793967723846E-09 0.000000000000E+00
R08 2016 01 05 21 15 00-2.703256905079E-05 0.000000000000E+00 7.560000000000E+04
     7.411246582031E+03 1.673456192017E+00 1.862645149231E-09 0.000000000000E+00
    -1.746857568359E+04-1.626170158386E+00 9.313225746155E-10 6.000000000000E+00
     1.709678808594E+04-2.391570091248E+00-9.313225746155E-10 0.000000000000E+00
R12 2016 01 05 21 15 00 3.151688724756E-05 1.818989403546E-12 7.602000000000E+04
    -1.008125146484E+04-5.053510665894E-01-2.793967723846E-09 0.000000000000E+00
    -1.972552343750E+04-1.677899360657E+00 9.313225746155E-10-1.000000000000E+00
    -1.280880664062E+04 2.972298622131E+00-0.000000000000E+00 0.000000000000E+00
R20 2016 01 05 21 15 00-2.130856737494E-04-1.818989403546E-12 7.656000000000E+04
     2.383267724609E+04 1.042475700378E+00 2.793967723846E-09 0.000000000000E+00
     4.914401367188E+03 1.712093353271E-01 0.000000000000E+00 2.000000000000E+00
    -7.560210449219E+03 3.398090362549E+00 1.862645149231E-09 0.000000000000E+00
R21 2016 01 05 21 45 00 4.550069570541E-05 1.818989403546E-12 7.740000000000E+04
     1.911792626953E+04 2.232830047607E+00 9.313225746155E-10 0.000000000000E+00
    -3.940846679688E+03 3.149566650391E-01-0.000000000000E+00 4.000000000000E+00
    -1.643505957031E+04 2.518406867981E+00 2.793967723846E-09 0.000000000000E+00
R12 2016 01 05 21 45 00 3.152154386044E-05 1.818989403546E-12 7.740000000000E+04
    -1.101225195312E+04-4.873876571655E-01-1.862645149231E-09 0.000000000000E+00
    -2.200629296875E+04-8.444948196411E-01 9.313225746155E-10-1.000000000000E+00
    -7.036682128906E+03 3.399893760681E+00-0.000000000000E+00 0.000000000000E+00
R07 2016 01 05 21 45 00-5.172565579414E-06-0.000000000000E+00 7.740000000000E+04
     1.807414257812E+04-5.481872558594E-01 1.862645149231E-09 0.000000000000E+00
    -1.732205957031E+04 4.008083343506E-01 0.000000000000E+00 5.000000000000E+00
    -4.806134765625E+03-3.490281105042E+00 1.862645149231E-09 0.000000000000E+00
R08 2016 01 05 21 45 00-2.703256905079E-05 0.000000000000E+00 7.740000000000E+04
     9.805572753906E+03 9.858684539795E-01 2.793967723846E-09 0.000000000000E+00
    -2.018201220703E+04-1.343274116516E+00 9.313225746155E-10 6.000000000000E+00
     1.218886816406E+04-3.026486396790E+00-0.000000000000E+00 0.000000000000E+00
R11 2016 01 05 21 45 00 2.138968557119E-05 0.000000000000E+00 7.740000000000E+04
    -2.590694824219E+03 3.222179412842E-01 9.313225746155E-10 0.000000000000E+00
    -2.284503320312E+04 1.480228424072E+00 9.313225746155E-10 0.000000000000E+00
     1.095768457031E+04 3.170884132385E+00-9.313225746155E-10 0.000000000000E+00
R10 2016 01 05 21 45 00 4.558824002743E-06 0.000000000000E+00 7.740000000000E+04
     7.128973144531E+03 8.981714248657E-01 2.793967723846E-09 0.000000000000E+00
    -1.029453222656E+04 2.914546966553E+00 0.000000000000E+00-7.000000000000E+00
     2.222175195312E+04 1.054759979248E+00-9.313225746155E-10 0.000000000000E+00
R06 2016 01 05 21 45 00 8.138734847307E-05 0.000000000000E+00 7.740000000000E+04
     1.627547265625E+04-1.744071006775E+00 0.000000000000E+00 0.000000000000E+00
    -4.884852539062E+03 1.931633949280E+00-0.000000000000E+00-4.000000000000E+00
    -1.903166162109E+04-1.991905212402E+00 2.793967723846E-09 0.000000000000E+00
R20 2016 01 05 21 45 00-2.130903303623E-04-1.818989403546E-12 7.740000000000E+04
     2.497863183594E+04 2.096643447876E-01 3.725290298462E-09 0.000000000000E+00
     4.888516601562E+03-1.632680892944E-01-0.000000000000E+00 2.000000000000E+00
    -1.229700195312E+03 3.589982986450E+00 1.862645149231E-09 0.000000000000E+00
R01 2016 01 05 21 45 00-1.470642164350E-04 0.000000000000E+00 7.761000000000E+04
    -3.914025878906E+03 1.944941520691E+00 1.862645149231E-09 0.000000000000E+00
    -1.196086474609E+04-2.333499908447E+00 9.313225746155E-10 1.000000000000E+00
     2.218382324219E+04-9.131059646606E-01-1.862645149231E-09 0.000000000000E+00
R22 2016 01 05 21 45 00 1.873653382063E-04 9.094947017729E-13 7.791000000000E+04
     1.782801757812E+03 3.108320236206E+00-9.313225746155E-10 0.000000000000E+00
    -1.055601855469E+04 6.373405456543E-01 0.000000000000E+00-3.000000000000E+00
    -2.314824804688E+04-3.929138183594E-02 1.862645149231E-09 0.000000000000E+00
R21 2016 01 05 22 15 00 4.550442099571E-05 1.818989403546E-12 7.920000000000E+04
     2.256267675781E+04 1.558912277222E+00 1.862645149231E-09 0.000000000000E+00
    -3.737280761719E+03-6.034374237061E-02-0.000000000000E+00 4.000000000000E+00
    -1.132582324219E+04 3.121675491333E+00 2.793967723846E-09 0.000000000000E+00
R12 2016 01 05 22 15 00 3.152620047331E-05 1.818989403546E-12 7.920000000000E+04
    -1.168445458984E+04-2.186269760132E-01-0.000000000000E+00 0.000000000000E+00
    -2.275818115234E+04 1.473426818848E-03 9.313225746155E-10-1.000000000000E+00
    -7.258081054688E+02 3.567109107971E+00-9.313225746155E-10 0.000000000000E+00
R08 2016 01 05 22 15 00-2.703163772821E-05 0.000000000000E+00 7.920000000000E+04
     1.098983251953E+04 3.469572067261E-01 2.793967723846E-09 0.000000000000E+00
    -2.214920947266E+04-8.032636642456E-01 0.000000000000E+00 6.000000000000E+00
     6.341461425781E+03-3.428626060486E+00 0.000000000000E+00 0.000000000000E+00
R07 2016 01 05 22 15 00-5.173496901989E-06-0.000000000000E+00 7.920000000000E+04
     1.670423291016E+04-9.327068328857E-01 1.862645149231E-09 0.000000000000E+00
    -1.592047265625E+04 1.165543556213E+00 0.000000000000E+00 5.000000000000E+00
    -1.082105566406E+04-3.149437904358E+00 1.862645149231E-09 0.000000000000E+00
R11 2016 01 05 22 15 00 2.139061689377E-05 0.000000000000E+00 7.920000000000E+04
    -1.540573242188E+03 8.635787963867E-01 1.862645149231E-09 0.000000000000E+00
    -1.963124121094E+04 2.048563957214E+00 9.313225746155E-10 0.000000000000E+00
     1.616577539062E+04 2.578255653381E+00-9.313225746155E-10 0.000000000000E+00
R10 2016 01 05 22 15 00 4.560686647892E-06 0.000000000000E+00 7.920000000000E+04
     9.202147460938E+03 1.391672134399E+00 2.793967723846E-09 0.000000000000E+00
    -5.042233398438E+03 2.870203971863E+00-0.000000000000E+00-7.000000000000E+00
     2.323639550781E+04 6.508350372314E-02-9.313225746155E-10 0.000000000000E+00
R01 2016 01 05 22 15 00-1.470642164350E-04 0.000000000000E+00 7.920000000000E+04
    -8.820234375000E+02 1.408281326294E+00 1.862645149231E-09 0.000000000000E+00
    -1.617537890625E+04-2.302076339722E+00 9.313225746155E-10 1.000000000000E+00
     1.970379492188E+04-1.824543952942E+00-9.313225746155E-10 0.000000000000E+00
R20 2016 01 05 22 15 00-2.130940556526E-04-1.818989403546E-12 7.920000000000E+04
     2.454562890625E+04-6.924648284912E-01 3.725290298462E-09 0.000000000000E+00
     4.470956054688E+03-2.587223052979E-01-9.313225746155E-10 2.000000000000E+00
     5.196214843750E+03 3.503420829773E+00 9.313225746155E-10 0.000000000000E+00
R06 2016 01 05 22 15 00 8.138827979565E-05 0.000000000000E+00 7.920000000000E+04
     1.317829101562E+04-1.655569076538E+00-0.000000000000E+00 0.000000000000E+00
    -8.878696289062E+02 2.483123779297E+00-0.000000000000E+00-4.000000000000E+00
    -2.183583154297E+04-1.103747367859E+00 2.793967723846E-09 0.000000000000E+00
R22 2016 01 05 22 15 00 1.873672008514E-04 0.000000000000E+00 7.920000000000E+04
     7.380358886719E+03 3.058740615845E+00-0.000000000000E+00 0.000000000000E+00
    -9.834797363281E+03 1.622972488403E-01 0.000000000000E+00-3.000000000000E+00
    -2.232225439453E+04 9.514694213867E-01 1.862645149231E-09 0.000000000000E+00
R21 2016 01 05 22 45 00 4.550721496344E-05 1.818989403546E-12 8.100000000000E+04
     2.462970312500E+04 7.186841964722E-01 2.793967723846E-09 0.000000000000E+00
    -4.035209472656E+03-2.321443557739E-01-9.313225746155E-10 4.000000000000E+00
    -5.342093750000E+03 3.483793258667E+00 1.862645149231E-09 0.000000000000E+00
R12 2016 01 05 22 45 00 3.152992576361E-05 1.818989403546E-12 8.100000000000E+04
    -1.166436718750E+04 2.736520767212E-01 0.000000000000E+00 0.000000000000E+00
    -2.206136865234E+04 7.474336624146E-01 9.313225746155E-10-1.000000000000E+00
     5.640596191406E+03 3.461150169373E+00-9.313225746155E-10 0.000000000000E+00
